{
  "norad_id": 62951,
  "name": "STARLINK-32875",
  "history": [
    {
      "epoch": "2026-03-28T20:33:55.166400",
      "apogee_km": 476.1479625921729,
      "perigee_km": 474.26576023407415,
      "latitude_deg": 27.165016393740295,
      "longitude_deg": -162.6387040000409,
      "semi_major_axis_km": 6853.343861413123,
      "eccentricity": 0.00013732,
      "inclination_deg": 53.16,
      "raan_deg": 141.1949,
      "arg_perigee_deg": 83.8069,
      "mean_anomaly_deg": 276.3088,
      "mean_motion_rev_day": 15.30202749
    }
  ]
}